DELTA 2 R/B(1)          
1 20453U 90008B   26056.62608640  .00056036  00000+0  69916-3 0  9995
2 20453  35.6032 253.9186 0087926 146.4838 214.1501 15.54127966924257
COSMOS 2058             
1 20465U 90010A   26056.46515549  .00003844  00000+0  22708-3 0  9995
2 20465  82.4672  59.4716 0010219  24.4028 335.7683 15.11196297940395
SL-14 R/B               
1 20466U 90010B   26056.54647329  .00000368  00000+0  41661-4 0  9995
2 20466  82.4998 278.7978 0019386 344.3071  15.7541 14.83556968926686
SL-14 R/B               
1 20511U 90018B   26056.48509946  .00000483  00000+0  57648-4 0  9999
2 20511  82.5184 234.4986 0017427 129.1921 231.0845 14.82129288920774
HST                     
1 20580U 90037B   26056.47912888  .00007044  00000+0  23324-3 0  9991
2 20580  28.4690 123.2830 0001281 356.3147   3.7439 15.29264569771444
SL-16 R/B               
1 20625U 90046B   26056.18475829 -.00000016  00000+0  16225-4 0  9994
2 20625  71.0016 324.1764 0015817 316.7358  43.2521 14.15015286846620
COSMOS 2084             
1 20663U 90055A   26056.30208335  .00002818  00000+0  20792-3 0  9990
2 20663  62.7912  17.8234 0019014 187.1020 172.9814 15.05559891934450
SL-6 R/B(2)             
1 20666U 90055D   26055.66929731  .00002082  00000+0  16563-3 0  9995
2 20666  62.7831 298.1277 0022731 343.7050  16.3316 15.03525271936236
SL-8 R/B                
1 20775U 90078B   26056.54560958  .00012559  00000+0  36817-3 0  9995
2 20775  82.9002 262.2300 0364983  54.7535 308.7265 14.88610790807494
SL-8 R/B                
1 21088U 91006B   26056.42199142  .00000050  00000+0  34635-4 0  9995
2 21088  82.9460 179.1653 0023624  71.2528 352.9306 13.77492849762382
OKEAN-3                 
1 21397U 91039A   26056.57641596  .00002968  00000+0  20847-3 0  9994
2 21397  82.5200 348.5757 0014835  19.0130 341.1647 15.04706288863212
COSMOS 2151             
1 21422U 91042A   26056.54303654  .00001373  00000+0  10792-3 0  9991
2 21422  82.4938  95.3957 0014128  99.9266 260.3554 15.00051459861372
